{"type": "FeatureCollection", "features": [ {"type": "Feature", "properties": {"norad_id": 40938, "name": "BEIDOU-3S IGSO-2S (C56)", "group": "gnss", "lat": -38.41700182005655, "lon": 123.47560291391129, "alt_km": 35613.374346853045, "timestamp": "2025-12-20T20:38:44.685835+00:00", "meta": {"OBJECT_NAME": "BEIDOU-3S IGSO-2S (C56)", "OBJECT_ID": "2015-053A", "EPOCH": "2025-12-20T15:50:57.638976", "MEAN_MOTION": 1.00268354, "ECCENTRICITY": 0.00605924, "INCLINATION": 49.4983, "RA_OF_ASC_NODE": 260.9125, "ARG_OF_PERICENTER": 188.7086, "MEAN_ANOMALY": 333.4786, "EPHEMERIS_TYPE": 0, "CLASSIFICATION_TYPE": "U", "NORAD_CAT_ID": 40938, "ELEMENT_SET_NO": 999, "REV_AT_EPOCH": 3756, "BSTAR": 0, "MEAN_MOTION_DOT": -1.06e-06, "MEAN_MOTION_DDOT": 0}, "tle": {"line1": "1 40938U 15053A   25354.66038934 -.00000106  00000+0  00000+0 0  9992", "line2": "2 40938  49.4983 260.9125 0060592 188.7086 333.4786  1.00268354 37562"}}, "geometry": {"type": "Point", "coordinates": [123.47560291391129, -38.41700182005655]}}, {"type": "Feature", "properties": {"norad_id": 41019, "name": "GPS BIIF-11 (PRN 10)", "group": "gnss", "lat": 41.11850301726616, "lon": 72.487749344435, "alt_km": 20472.370354807394, "timestamp": "2025-12-20T20:38:44.685847+00:00", "meta": {"OBJECT_NAME": "GPS BIIF-11 (PRN 10)", "OBJECT_ID": "2015-062A", "EPOCH": "2025-12-20T06:55:31.863936", "MEAN_MOTION": 2.00567218, "ECCENTRICITY": 0.01110192, "INCLINATION": 56.8376, "RA_OF_ASC_NODE": 37.7103, "ARG_OF_PERICENTER": 230.1421, "MEAN_ANOMALY": 128.9419, "EPHEMERIS_TYPE": 0, "CLASSIFICATION_TYPE": "U", "NORAD_CAT_ID": 41019, "ELEMENT_SET_NO": 999, "REV_AT_EPOCH": 7424, "BSTAR": 0, "MEAN_MOTION_DOT": -5.7e-07, "MEAN_MOTION_DDOT": 0}, "tle": {"line1": "1 41019U 15062A   25354.28856324 -.00000057  00000+0  00000+0 0  9997", "line2": "2 41019  56.8376  37.7103 0111019 230.1421 128.9419  2.00567218 74241"}}, "geometry": {"type": "Point", "coordinates": [72.487749344435, 41.11850301726616]}}, {"type": "Feature", "properties": {"norad_id": 41028, "name": "GSAT-15 (GAGAN/PRN 139)", "group": "gnss", "lat": -0.0006299887685404796, "lon": 132.83794188530084, "alt_km": 35788.095289594356, "timestamp": "2025-12-20T20:38:44.685862+00:00", "meta": {"OBJECT_NAME": "GSAT-15 (GAGAN/PRN 139)", "OBJECT_ID": "2015-065A", "EPOCH": "2025-12-20T15:07:46.181568", "MEAN_MOTION": 1.00272253, "ECCENTRICITY": 0.00024138, "INCLINATION": 0.0295, "RA_OF_ASC_NODE": 271.7896, "ARG_OF_PERICENTER": 322.7637, "MEAN_ANOMALY": 175.3503, "EPHEMERIS_TYPE": 0, "CLASSIFICATION_TYPE": "U", "NORAD_CAT_ID": 41028, "ELEMENT_SET_NO": 999, "REV_AT_EPOCH": 3700, "BSTAR": 0, "MEAN_MOTION_DOT": -2.34e-06, "MEAN_MOTION_DDOT": 0}, "tle": {"line1": "1 41028U 15065A   25354.63039562 -.00000234  00000+0  00000+0 0  9993", "line2": "2 41028   0.0295 271.7896 0002413 322.7637 175.3503  1.00272253 37009"}}, "geometry": {"type": "Point", "coordinates": [132.83794188530084, -0.0006299887685404796]}}, {"type": "Feature", "properties": {"norad_id": 41174, "name": "GSAT0209 (GALILEO 12)", "group": "gnss", "lat": 55.67407512795667, "lon": -167.8085523154087, "alt_km": 23217.062195825136, "timestamp": "2025-12-20T20:38:44.685876+00:00", "meta": {"OBJECT_NAME": "GSAT0209 (GALILEO 12)", "OBJECT_ID": "2015-079A", "EPOCH": "2025-12-17T18:49:30.009504", "MEAN_MOTION": 1.70474581, "ECCENTRICITY": 0.00024688, "INCLINATION": 55.7156, "RA_OF_ASC_NODE": 106.2426, "ARG_OF_PERICENTER": 347.1145, "MEAN_ANOMALY": 12.8381, "EPHEMERIS_TYPE": 0, "CLASSIFICATION_TYPE": "U", "NORAD_CAT_ID": 41174, "ELEMENT_SET_NO": 999, "REV_AT_EPOCH": 6168, "BSTAR": 0, "MEAN_MOTION_DOT": -9e-08, "MEAN_MOTION_DDOT": 0}, "tle": {"line1": "1 41174U 15079A   25351.78437511 -.00000009  00000+0  00000+0 0  9999", "line2": "2 41174  55.7156 106.2426 0002468 347.1145  12.8381  1.70474581 61685"}}, "geometry": {"type": "Point", "coordinates": [-167.8085523154087, 55.67407512795667]}}, {"type": "Feature", "properties": {"norad_id": 41175, "name": "GSAT0208 (GALILEO 11)", "group": "gnss", "lat": -37.475104008245964, "lon": 74.66684618708716, "alt_km": 23223.005946284724, "timestamp": "2025-12-20T20:38:44.685887+00:00", "meta": {"OBJECT_NAME": "GSAT0208 (GALILEO 11)", "OBJECT_ID": "2015-079B", "EPOCH": "2025-12-20T08:25:16.296384", "MEAN_MOTION": 1.70474393, "ECCENTRICITY": 0.00018076, "INCLINATION": 55.7157, "RA_OF_ASC_NODE": 106.1693, "ARG_OF_PERICENTER": 359.1842, "MEAN_ANOMALY": 0.7815, "EPHEMERIS_TYPE": 0, "CLASSIFICATION_TYPE": "U", "NORAD_CAT_ID": 41175, "ELEMENT_SET_NO": 999, "REV_AT_EPOCH": 6214, "BSTAR": 0, "MEAN_MOTION_DOT": -2e-08, "MEAN_MOTION_DDOT": 0}, "tle": {"line1": "1 41175U 15079B   25354.35088306 -.00000002  00000+0  00000+0 0  9993", "line2": "2 41175  55.7157 106.1693 0001807 359.1842   0.7815  1.70474393 62146"}}, "geometry": {"type": "Point", "coordinates": [74.66684618708716, -37.475104008245964]}}, {"type": "Feature", "properties": {"norad_id": 41241, "name": "IRNSS-1E", "group": "gnss", "lat": 32.86094179549614, "lon": 150.5973258068102, "alt_km": 35798.801240193585, "timestamp": "2025-12-20T20:38:44.685899+00:00", "meta": {"OBJECT_NAME": "IRNSS-1E", "OBJECT_ID": "2016-003A", "EPOCH": "2025-12-20T14:57:09.230400", "MEAN_MOTION": 1.00270447, "ECCENTRICITY": 0.00216187, "INCLINATION": 32.8427, "RA_OF_ASC_NODE": 62.3382, "ARG_OF_PERICENTER": 188.6599, "MEAN_ANOMALY": 174.4859, "EPHEMERIS_TYPE": 0, "CLASSIFICATION_TYPE": "U", "NORAD_CAT_ID": 41241, "ELEMENT_SET_NO": 999, "REV_AT_EPOCH": 3629, "BSTAR": 0, "MEAN_MOTION_DOT": -3e-06, "MEAN_MOTION_DDOT": 0}, "tle": {"line1": "1 41241U 16003A   25354.62302350 -.00000300  00000+0  00000+0 0  9994", "line2": "2 41241  32.8427  62.3382 0021618 188.6599 174.4859  1.00270447 36291"}}, "geometry": {"type": "Point", "coordinates": [150.5973258068102, 32.86094179549614]}}, {"type": "Feature", "properties": {"norad_id": 41328, "name": "GPS BIIF-12 (PRN 32)", "group": "gnss", "lat": -5.66207334473516, "lon": 92.61844868452833, "alt_km": 20263.35129493197, "timestamp": "2025-12-20T20:38:44.685910+00:00", "meta": {"OBJECT_NAME": "GPS BIIF-12 (PRN 32)", "OBJECT_ID": "2016-007A", "EPOCH": "2025-12-20T08:54:35.720928", "MEAN_MOTION": 2.00560411, "ECCENTRICITY": 0.00925423, "INCLINATION": 55.4103, "RA_OF_ASC_NODE": 96.5541, "ARG_OF_PERICENTER": 243.7653, "MEAN_ANOMALY": 115.2741, "EPHEMERIS_TYPE": 0, "CLASSIFICATION_TYPE": "U", "NORAD_CAT_ID": 41328, "ELEMENT_SET_NO": 999, "REV_AT_EPOCH": 7225, "BSTAR": 0, "MEAN_MOTION_DOT": -1.8e-07, "MEAN_MOTION_DDOT": 0}, "tle": {"line1": "1 41328U 16007A   25354.37124677 -.00000018  00000+0  00000+0 0  9996", "line2": "2 41328  55.4103  96.5541 0092542 243.7653 115.2741  2.00560411 72256"}}, "geometry": {"type": "Point", "coordinates": [92.61844868452833, -5.66207334473516]}}, {"type": "Feature", "properties": {"norad_id": 41330, "name": "COSMOS 2514 (751)", "group": "gnss", "lat": -63.72550686584747, "lon": -110.79300536162961, "alt_km": 19120.75764722397, "timestamp": "2025-12-20T20:38:44.685926+00:00", "meta": {"OBJECT_NAME": "COSMOS 2514 (751)", "OBJECT_ID": "2016-008A", "EPOCH": "2025-12-20T00:39:53.035488", "MEAN_MOTION": 2.13102672, "ECCENTRICITY": 0.00117789, "INCLINATION": 65.1296, "RA_OF_ASC_NODE": 319.1545, "ARG_OF_PERICENTER": 220.1416, "MEAN_ANOMALY": 139.763, "EPHEMERIS_TYPE": 0, "CLASSIFICATION_TYPE": "U", "NORAD_CAT_ID": 41330, "ELEMENT_SET_NO": 999, "REV_AT_EPOCH": 7680, "BSTAR": 0, "MEAN_MOTION_DOT": -5.4e-07, "MEAN_MOTION_DDOT": 0}, "tle": {"line1": "1 41330U 16008A   25354.02769717 -.00000054  00000+0  00000+0 0  9992", "line2": "2 41330  65.1296 319.1545 0011778 220.1416 139.7630  2.13102672 76804"}}, "geometry": {"type": "Point", "coordinates": [-110.79300536162961, -63.72550686584747]}}, {"type": "Feature", "properties": {"norad_id": 41384, "name": "IRNSS-1F", "group": "gnss", "lat": -2.3592410679582705, "lon": 72.03413977409791, "alt_km": 35867.529636480154, "timestamp": "2025-12-20T20:38:44.685938+00:00", "meta": {"OBJECT_NAME": "IRNSS-1F", "OBJECT_ID": "2016-015A", "EPOCH": "2025-12-19T23:41:22.009056", "MEAN_MOTION": 1.00276206, "ECCENTRICITY": 0.00226432, "INCLINATION": 4.8991, "RA_OF_ASC_NODE": 101.1179, "ARG_OF_PERICENTER": 181.5741, "MEAN_ANOMALY": 193.9029, "EPHEMERIS_TYPE": 0, "CLASSIFICATION_TYPE": "U", "NORAD_CAT_ID": 41384, "ELEMENT_SET_NO": 999, "REV_AT_EPOCH": 3587, "BSTAR": 0, "MEAN_MOTION_DOT": 1.78e-06, "MEAN_MOTION_DDOT": 0}, "tle": {"line1": "1 41384U 16015A   25353.98706029  .00000178  00000+0  00000+0 0  9996", "line2": "2 41384   4.8991 101.1179 0022643 181.5741 193.9029  1.00276206 35877"}}, "geometry": {"type": "Point", "coordinates": [72.03413977409791, -2.3592410679582705]}}, {"type": "Feature", "properties": {"norad_id": 41434, "name": "BEIDOU-2 IGSO-6 (C13)", "group": "gnss", "lat": 59.890755460565025, "lon": 134.701782456221, "alt_km": 35965.31994568162, "timestamp": "2025-12-20T20:38:44.685949+00:00", "meta": {"OBJECT_NAME": "BEIDOU-2 IGSO-6 (C13)", "OBJECT_ID": "2016-021A", "EPOCH": "2025-12-18T14:33:38.837664", "MEAN_MOTION": 1.00292299, "ECCENTRICITY": 0.00610054, "INCLINATION": 59.9732, "RA_OF_ASC_NODE": 39.8392, "ARG_OF_PERICENTER": 230.2031, "MEAN_ANOMALY": 129.1398, "EPHEMERIS_TYPE": 0, "CLASSIFICATION_TYPE": "U", "NORAD_CAT_ID": 41434, "ELEMENT_SET_NO": 999, "REV_AT_EPOCH": 3566, "BSTAR": 0, "MEAN_MOTION_DOT": -1.41e-06, "MEAN_MOTION_DDOT": 0}, "tle": {"line1": "1 41434U 16021A   25352.60669951 -.00000141  00000+0  00000+0 0  9990", "line2": "2 41434  59.9732  39.8392 0061005 230.2031 129.1398  1.00292299 35667"}}, "geometry": {"type": "Point", "coordinates": [134.701782456221, 59.890755460565025]}}]}